STARLETTE               
1 07646U 75010A   16075.44479443 -.00000138  00000-0  20988-5 0  9999
2 07646  49.8242 128.9726 0205735 289.4304  68.4461 13.82300061 76399
LAGEOS 1                
1 08820U 76039A   16075.44592164 -.00000012  00000-0  00000+0 0  9990
2 08820 109.8601 336.2477 0044263  23.6925  50.8524  6.38664955674343
AJISAI (EGS)            
1 16908U 86061A   16075.23926949 -.00000093  00000-0  32531-4 0  9999
2 16908  50.0085 145.7372 0011300   6.4418  59.0127 12.44483171 14296
LAGEOS 2                
1 22195U 92070B   16075.21277907 -.00000009  00000-0  00000+0 0  9990
2 22195  52.6478 114.1386 0137623 349.2785  96.1337  6.47294216553112
STELLA                  
1 22824U 93061B   16075.49197141 -.00000027  00000-0  74390-5 0  9990
2 22824  98.7563  24.1100 0005497 307.3667 171.6186 14.27361856170576
GRACE-1                 
1 27391U 02012A   16074.50943097  .00015807  00000-0  14559-3 0  9990
2 27391  88.9985  27.4171 0010198 107.9238 352.0350 15.67438930785196
GRACE-2                 
1 27392U 02012B   16074.87438731  .00016496  00000-0  15187-3 0  9998
2 27392  88.9993  27.4392 0010200 106.8197 253.4194 15.67451595785245
LARES                   
1 38077U 12006A   16075.52219010 -.00000022  00000-0  10000-3 0  9992
2 38077  69.4919 210.1777 0009808 324.3481  35.6884 12.54930751187221
